CCSDS_OMM_VERS = 2.0
CREATION_DATE  = 
ORIGINATOR     = 

OBJECT_NAME    = STARLINK-36839
OBJECT_ID      = 2026-044AA
CENTER_NAME    = EARTH
REF_FRAME      = TEME
TIME_SYSTEM    = UTC
MEAN_ELEMENT_THEORY = SGP/SGP4

EPOCH          = 2026-03-29T03:14:38.661216
MEAN_MOTION    = 15.75206018
ECCENTRICITY   = .0001336
INCLINATION    = 97.2849
RA_OF_ASC_NODE = 49.2704
ARG_OF_PERICENTER = 88.1928
MEAN_ANOMALY   = 271.9490

EPHEMERIS_TYPE = 0
CLASSIFICATION_TYPE = U
NORAD_CAT_ID   = 68125
ELEMENT_SET_NO = 999
REV_AT_EPOCH   = 454
BSTAR          = .74229E-3
MEAN_MOTION_DOT = .112129E-2
MEAN_MOTION_DDOT = 0

CCSDS_OMM_VERS = 2.0
CREATION_DATE  = 
ORIGINATOR     = 

OBJECT_NAME    = ECHOSTAR 25
OBJECT_ID      = 2026-045A
CENTER_NAME    = EARTH
REF_FRAME      = TEME
TIME_SYSTEM    = UTC
MEAN_ELEMENT_THEORY = SGP/SGP4

EPOCH          = 2026-03-29T03:34:38.760672
MEAN_MOTION    = 1.00272516
ECCENTRICITY   = .0002391
INCLINATION    = 0.0525
RA_OF_ASC_NODE = 281.9352
ARG_OF_PERICENTER = 108.1952
MEAN_ANOMALY   = 81.1756

EPHEMERIS_TYPE = 0
CLASSIFICATION_TYPE = U
NORAD_CAT_ID   = 68126
ELEMENT_SET_NO = 999
REV_AT_EPOCH   = 19
BSTAR          = 0
MEAN_MOTION_DOT = .39E-6
MEAN_MOTION_DDOT = 0

CCSDS_OMM_VERS = 2.0
CREATION_DATE  = 
ORIGINATOR     = 

OBJECT_NAME    = ICOR SV
OBJECT_ID      = 2026-046A
CENTER_NAME    = EARTH
REF_FRAME      = TEME
TIME_SYSTEM    = UTC
MEAN_ELEMENT_THEORY = SGP/SGP4

EPOCH          = 2026-03-29T04:53:16.877184
MEAN_MOTION    = 15.94428676
ECCENTRICITY   = .010318
INCLINATION    = 123.0768
RA_OF_ASC_NODE = 294.6930
ARG_OF_PERICENTER = 222.1142
MEAN_ANOMALY   = 137.1968

EPHEMERIS_TYPE = 0
CLASSIFICATION_TYPE = U
NORAD_CAT_ID   = 68127
ELEMENT_SET_NO = 999
REV_AT_EPOCH   = 270
BSTAR          = .76049E-3
MEAN_MOTION_DOT = .502996E-2
MEAN_MOTION_DDOT = .11335E-3

CCSDS_OMM_VERS = 2.0
CREATION_DATE  = 
ORIGINATOR     = 

OBJECT_NAME    = FIREFLY ALPHA R/B
OBJECT_ID      = 2026-046B
CENTER_NAME    = EARTH
REF_FRAME      = TEME
TIME_SYSTEM    = UTC
MEAN_ELEMENT_THEORY = SGP/SGP4

EPOCH          = 2026-03-29T00:45:01.651104
MEAN_MOTION    = 15.57252906
ECCENTRICITY   = .0016242
INCLINATION    = 123.0941
RA_OF_ASC_NODE = 290.3676
ARG_OF_PERICENTER = 18.8195
MEAN_ANOMALY   = 341.3463

EPHEMERIS_TYPE = 0
CLASSIFICATION_TYPE = U
NORAD_CAT_ID   = 68128
ELEMENT_SET_NO = 999
REV_AT_EPOCH   = 265
BSTAR          = .5717E-3
MEAN_MOTION_DOT = .42344E-3
MEAN_MOTION_DDOT = 0

CCSDS_OMM_VERS = 2.0
CREATION_DATE  = 
ORIGINATOR     = 

OBJECT_NAME    = GUOWANG GROUP 20 OBJECT A
OBJECT_ID      = 2026-047A
CENTER_NAME    = EARTH
REF_FRAME      = TEME
TIME_SYSTEM    = UTC
MEAN_ELEMENT_THEORY = SGP/SGP4

EPOCH          = 2026-03-27T14:49:26.211072
MEAN_MOTION    = 13.95400488
ECCENTRICITY   = .0001326
INCLINATION    = 50.0073
RA_OF_ASC_NODE = 357.5704
ARG_OF_PERICENTER = 229.8596
MEAN_ANOMALY   = 130.2189

EPHEMERIS_TYPE = 0
CLASSIFICATION_TYPE = U
NORAD_CAT_ID   = 68129
ELEMENT_SET_NO = 999
REV_AT_EPOCH   = 208
BSTAR          = .34814E-4
MEAN_MOTION_DOT = -.101E-5
MEAN_MOTION_DDOT = 0

CCSDS_OMM_VERS = 2.0
CREATION_DATE  = 
ORIGINATOR     = 

OBJECT_NAME    = GUOWANG GROUP 20 OBJECT B
OBJECT_ID      = 2026-047B
CENTER_NAME    = EARTH
REF_FRAME      = TEME
TIME_SYSTEM    = UTC
MEAN_ELEMENT_THEORY = SGP/SGP4

EPOCH          = 2026-03-26T18:09:03.081024
MEAN_MOTION    = 13.96591410
ECCENTRICITY   = .0000428
INCLINATION    = 50.0066
RA_OF_ASC_NODE = 1.0171
ARG_OF_PERICENTER = 307.3036
MEAN_ANOMALY   = 52.7826

EPHEMERIS_TYPE = 0
CLASSIFICATION_TYPE = U
NORAD_CAT_ID   = 68130
ELEMENT_SET_NO = 999
REV_AT_EPOCH   = 195
BSTAR          = .55036E-4
MEAN_MOTION_DOT = -.72E-6
MEAN_MOTION_DDOT = 0

CCSDS_OMM_VERS = 2.0
CREATION_DATE  = 
ORIGINATOR     = 

OBJECT_NAME    = GUOWANG GROUP 20 OBJECT C
OBJECT_ID      = 2026-047C
CENTER_NAME    = EARTH
REF_FRAME      = TEME
TIME_SYSTEM    = UTC
MEAN_ELEMENT_THEORY = SGP/SGP4

EPOCH          = 2026-03-26T19:49:39.748800
MEAN_MOTION    = 13.96862690
ECCENTRICITY   = .0000048
INCLINATION    = 49.9996
RA_OF_ASC_NODE = 0.7054
ARG_OF_PERICENTER = 49.5998
MEAN_ANOMALY   = 310.4907

EPHEMERIS_TYPE = 0
CLASSIFICATION_TYPE = U
NORAD_CAT_ID   = 68131
ELEMENT_SET_NO = 999
REV_AT_EPOCH   = 197
BSTAR          = .2709E-4
MEAN_MOTION_DOT = -.111E-5
MEAN_MOTION_DDOT = 0

CCSDS_OMM_VERS = 2.0
CREATION_DATE  = 
ORIGINATOR     = 

OBJECT_NAME    = GUOWANG GROUP 20 OBJECT D
OBJECT_ID      = 2026-047D
CENTER_NAME    = EARTH
REF_FRAME      = TEME
TIME_SYSTEM    = UTC
MEAN_ELEMENT_THEORY = SGP/SGP4

EPOCH          = 2026-03-24T19:43:51.842784
MEAN_MOTION    = 14.00513037
ECCENTRICITY   = .00024162
INCLINATION    = 50.0048
RA_OF_ASC_NODE = 8.7665
ARG_OF_PERICENTER = 7.3102
MEAN_ANOMALY   = 352.7836

EPHEMERIS_TYPE = 0
CLASSIFICATION_TYPE = U
NORAD_CAT_ID   = 68132
ELEMENT_SET_NO = 999
REV_AT_EPOCH   = 168
BSTAR          = .32408862E-4
MEAN_MOTION_DOT = -.102E-5
MEAN_MOTION_DDOT = 0

CCSDS_OMM_VERS = 2.0
CREATION_DATE  = 
ORIGINATOR     = 

OBJECT_NAME    = GUOWANG GROUP 20 OBJECT E
OBJECT_ID      = 2026-047E
CENTER_NAME    = EARTH
REF_FRAME      = TEME
TIME_SYSTEM    = UTC
MEAN_ELEMENT_THEORY = SGP/SGP4

EPOCH          = 2026-03-24T07:42:54.851616
MEAN_MOTION    = 14.01339008
ECCENTRICITY   = .00032302
INCLINATION    = 49.9979
RA_OF_ASC_NODE = 10.8404
ARG_OF_PERICENTER = 188.5214
MEAN_ANOMALY   = 171.5635

EPHEMERIS_TYPE = 0
CLASSIFICATION_TYPE = U
NORAD_CAT_ID   = 68133
ELEMENT_SET_NO = 999
REV_AT_EPOCH   = 162
BSTAR          = .15966081E-4
MEAN_MOTION_DOT = -.126E-5
MEAN_MOTION_DDOT = 0

CCSDS_OMM_VERS = 2.0
CREATION_DATE  = 
ORIGINATOR     = 

OBJECT_NAME    = GUOWANG GROUP 20 OBJECT F
OBJECT_ID      = 2026-047F
CENTER_NAME    = EARTH
REF_FRAME      = TEME
TIME_SYSTEM    = UTC
MEAN_ELEMENT_THEORY = SGP/SGP4

EPOCH          = 2026-03-24T02:31:27.101856
MEAN_MOTION    = 14.01903676
ECCENTRICITY   = .00004752
INCLINATION    = 50.0123
RA_OF_ASC_NODE = 11.6502
ARG_OF_PERICENTER = 222.9253
MEAN_ANOMALY   = 137.1614

EPHEMERIS_TYPE = 0
CLASSIFICATION_TYPE = U
NORAD_CAT_ID   = 68134
ELEMENT_SET_NO = 999
REV_AT_EPOCH   = 158
BSTAR          = .77668349E-4
MEAN_MOTION_DOT = -.32E-6
MEAN_MOTION_DDOT = 0

CCSDS_OMM_VERS = 2.0
CREATION_DATE  = 
ORIGINATOR     = 

OBJECT_NAME    = GUOWANG GROUP 20 OBJECT G
OBJECT_ID      = 2026-047G
CENTER_NAME    = EARTH
REF_FRAME      = TEME
TIME_SYSTEM    = UTC
MEAN_ELEMENT_THEORY = SGP/SGP4

EPOCH          = 2026-03-26T17:51:49.939200
MEAN_MOTION    = 14.01583953
ECCENTRICITY   = .00048065
INCLINATION    = 50.0409
RA_OF_ASC_NODE = 0.8903
ARG_OF_PERICENTER = 213.0056
MEAN_ANOMALY   = 147.0548

EPHEMERIS_TYPE = 0
CLASSIFICATION_TYPE = U
NORAD_CAT_ID   = 68135
ELEMENT_SET_NO = 999
REV_AT_EPOCH   = 196
BSTAR          = .11069373E-3
MEAN_MOTION_DOT = .18E-6
MEAN_MOTION_DDOT = 0

CCSDS_OMM_VERS = 2.0
CREATION_DATE  = 
ORIGINATOR     = 

OBJECT_NAME    = GUOWANG GROUP 20 OBJECT H
OBJECT_ID      = 2026-047H
CENTER_NAME    = EARTH
REF_FRAME      = TEME
TIME_SYSTEM    = UTC
MEAN_ELEMENT_THEORY = SGP/SGP4

EPOCH          = 2026-03-25T00:46:09.563232
MEAN_MOTION    = 14.01074305
ECCENTRICITY   = .0014532
INCLINATION    = 49.9530
RA_OF_ASC_NODE = 7.8688
ARG_OF_PERICENTER = 103.7924
MEAN_ANOMALY   = 256.4596

EPHEMERIS_TYPE = 0
CLASSIFICATION_TYPE = U
NORAD_CAT_ID   = 68136
ELEMENT_SET_NO = 999
REV_AT_EPOCH   = 171
BSTAR          = .33918E-4
MEAN_MOTION_DOT = -.99E-6
MEAN_MOTION_DDOT = 0

